STARLINK-30710
1 57938U 23148D   25330.15619111 -.00000393  00000+0 -11491-5 0  9995
2 57938  53.1600 135.1238 0001140  84.4085 275.7046 15.30199230122703